*******************************************************************************
Ephemeris / WWW_USER Fri Mar  7 10:45:20 2025 Pasadena, USA      / Horizons    
*******************************************************************************
Target body name: (2018 TB)                       {source: JPL#26}
Center body name: Earth (399)                     {source: DE441}
Center-site name: Mauna Kea
*******************************************************************************
Start time      : A.D. 2018-Sep-03 04:45:00.0000 UT      
Stop  time      : A.D. 2018-Sep-03 15:57:00.0000 UT      
Step-size       : 1 minutes
*******************************************************************************
Target pole/equ : undefined
Target radii    : undefined                                                    
Center geodetic : 204.5278, 19.8260847, 4.21024   {E-lon(deg),Lat(deg),Alt(km)}
Center cylindric: 204.5278, 6006.35451, 2151.0229 {E-lon(deg),Dxy(km),Dz(km)}
Center pole/equ : ITRF93                          {East-longitude positive}
Center radii    : 6378.137, 6378.137, 6356.752 km {Equator_a, b, pole_c}       
Target primary  : Sun
Vis. interferer : MOON (R_eq= 1737.400) km        {source: DE441}
Rel. light bend : Sun                             {source: DE441}
Rel. lght bnd GM: 1.3271E+11 km^3/s^2                                          
Small-body perts: Yes                             {source: SB441-N16}
Atmos refraction: NO (AIRLESS)
RA format       : HMS
Time format     : CAL 
Calendar mode   : Mixed Julian/Gregorian
RTS-only print  : NO       
EOP file        : eop.250306.p250602                                           
EOP coverage    : DATA-BASED 1962-JAN-20 TO 2025-MAR-06. PREDICTS-> 2025-JUN-01
Units conversion: 1 au= 149597870.700 km, c= 299792.458 km/s, 1 day= 86400.0 s 
Table cut-offs 1: Elevation (-90.0deg=NO ),Airmass (>38.000=NO), Daylight (YES)
Table cut-offs 2: Solar elongation (  0.0,180.0=NO ),Local Hour Angle( 0.0=NO )
Table cut-offs 3: RA/DEC angular rate (     0.0=NO )                           
*******************************************************************************
Initial IAU76/J2000 heliocentric ecliptic osculating elements (au, days, deg.):
  EPOCH=  2458410.5 ! 2018-Oct-19.00 (TDB)         Residual RMS= .12604        
   EC= .5817616216321111   QR= 1.001672821897195   TP= 2458383.1822299529      
   OM= 14.42282174156359   W=  341.1556337077549   IN= 3.61300419916586        
  Equivalent ICRF heliocentric cartesian coordinates (au, au/d):
   X= 9.381709462996228E-01  Y= 4.515017153732180E-01  Z= 2.129237315158303E-01
  VX=-5.799214133182419E-03 VY= 1.778204046057418E-02 VZ= 9.138573561666745E-03
Asteroid physical parameters (km, seconds, rotational period in hours):        
   GM= n.a.                RAD= n.a.               ROTPER= n.a.                
   H= 24.89                G= .150                 B-V= n.a.                   
                           ALBEDO= n.a.            STYP= n.a.                  
*******************************************************************************
 Date__(UT)__HR:MN     R.A._________(ICRF)_________DEC
******************************************************
$$SOE
 2018-Sep-03 15:00 Am  16 47 38.329285 -40 42 51.83102
 2018-Sep-03 15:01 Am  16 47 38.378009 -40 42 52.06767
 2018-Sep-03 15:02 Am  16 47 38.426771 -40 42 52.30506
 2018-Sep-03 15:03 Am  16 47 38.475572 -40 42 52.54318
 2018-Sep-03 15:04 Am  16 47 38.524409 -40 42 52.78204
 2018-Sep-03 15:05 Am  16 47 38.573283 -40 42 53.02164
 2018-Sep-03 15:06 Am  16 47 38.622194 -40 42 53.26197
 2018-Sep-03 15:07 Am  16 47 38.671141 -40 42 53.50305
 2018-Sep-03 15:08 Am  16 47 38.720124 -40 42 53.74487
 2018-Sep-03 15:09 Am  16 47 38.769141 -40 42 53.98743
 2018-Sep-03 15:10 Am  16 47 38.818194 -40 42 54.23073
 2018-Sep-03 15:11 Am  16 47 38.867281 -40 42 54.47478
 2018-Sep-03 15:12 Am  16 47 38.916401 -40 42 54.71957
 2018-Sep-03 15:13 Am  16 47 38.965556 -40 42 54.96511
 2018-Sep-03 15:14 Am  16 47 39.014743 -40 42 55.21140
 2018-Sep-03 15:15 Am  16 47 39.063963 -40 42 55.45843
 2018-Sep-03 15:16 Am  16 47 39.113215 -40 42 55.70622
 2018-Sep-03 15:17 Am  16 47 39.162498 -40 42 55.95476
 2018-Sep-03 15:18 Am  16 47 39.211813 -40 42 56.20404
 2018-Sep-03 15:19 Nm  16 47 39.261159 -40 42 56.45408
 2018-Sep-03 15:20 Nm  16 47 39.310536 -40 42 56.70488
 2018-Sep-03 15:21 Nm  16 47 39.359942 -40 42 56.95642
 2018-Sep-03 15:22 Nm  16 47 39.409378 -40 42 57.20873
 2018-Sep-03 15:23 Nm  16 47 39.458843 -40 42 57.46179
 2018-Sep-03 15:24 Nm  16 47 39.508337 -40 42 57.71560
 2018-Sep-03 15:25 Nm  16 47 39.557859 -40 42 57.97018
 2018-Sep-03 15:26 Nm  16 47 39.607409 -40 42 58.22551
 2018-Sep-03 15:27 Nm  16 47 39.656986 -40 42 58.48160
 2018-Sep-03 15:28 Nm  16 47 39.706590 -40 42 58.73846
 2018-Sep-03 15:29 Nm  16 47 39.756221 -40 42 58.99607
 2018-Sep-03 15:30 Nm  16 47 39.805878 -40 42 59.25444
 2018-Sep-03 15:31 Nm  16 47 39.855560 -40 42 59.51358
 2018-Sep-03 15:32 Nm  16 47 39.905268 -40 42 59.77349
 2018-Sep-03 15:33 Nm  16 47 39.955000 -40 43 00.03415
 2018-Sep-03 15:34 Nm  16 47 40.004757 -40 43 00.29558
 2018-Sep-03 15:35 Nm  16 47 40.054537 -40 43 00.55778
 2018-Sep-03 15:36 Nm  16 47 40.104341 -40 43 00.82074
 2018-Sep-03 15:37 Nm  16 47 40.154168 -40 43 01.08447
 2018-Sep-03 15:38 Nm  16 47 40.204018 -40 43 01.34897
 2018-Sep-03 15:39 Nm  16 47 40.253889 -40 43 01.61424
 2018-Sep-03 15:40 Nm  16 47 40.303782 -40 43 01.88027
 2018-Sep-03 15:41 Nm  16 47 40.353697 -40 43 02.14708
 2018-Sep-03 15:42 Nm  16 47 40.403632 -40 43 02.41465
 2018-Sep-03 15:43 Nm  16 47 40.453588 -40 43 02.68300
 2018-Sep-03 15:44 Nm  16 47 40.503563 -40 43 02.95212
 2018-Sep-03 15:45 Cm  16 47 40.553558 -40 43 03.22201
 2018-Sep-03 15:46 Cm  16 47 40.603571 -40 43 03.49267
 2018-Sep-03 15:47 Cm  16 47 40.653604 -40 43 03.76411
 2018-Sep-03 15:48 Cm  16 47 40.703654 -40 43 04.03632
 2018-Sep-03 15:49 Cm  16 47 40.753722 -40 43 04.30930
 2018-Sep-03 15:50 Cm  16 47 40.803807 -40 43 04.58306
 2018-Sep-03 15:51 Cm  16 47 40.853909 -40 43 04.85759
 2018-Sep-03 15:52 Cm  16 47 40.904028 -40 43 05.13290
 2018-Sep-03 15:53 Cm  16 47 40.954162 -40 43 05.40899
 2018-Sep-03 15:54 Cm  16 47 41.004311 -40 43 05.68585
 2018-Sep-03 15:55 Cm  16 47 41.054476 -40 43 05.96349
 2018-Sep-03 15:56 Cm  16 47 41.104655 -40 43 06.24190
 2018-Sep-03 15:57 Cm  16 47 41.154848 -40 43 06.52110
